email,discipline_id,street_address,city,state,zip_code
theodora.schulist@example.com,1,100 Center Ave,Rockville,MD,21840
dudley.wolff@example.com,2,101 Center Ave,Rockville,MD,21840
kali.carter@example.com,3,102 Center Ave,Rockville,MD,21840
luciano.gerhold@example.com,4,103 Center Ave,Rockville,MD,21840
alene.boehm@example.com,5,104 Center Ave,Rockville,MD,21840
rhett.aufderhar@example.com,3,105 Center Ave,Rockville,MD,21840
antonietta.kessler@example.com,2,106 Center Ave,Rockville,MD,21840
angelica.harris@example.com,1,107 Center Ave,Rockville,MD,21840
mike.nienow@example.com,2,108 Center Ave,Rockville,MD,21840
lue.crona@example.com,3,109 Center Ave,Rockville,MD,21840
lance.kub@example.com,2,110 Center Ave,Rockville,MD,21840
kamille.lueilwitz@example.com,4,111 Center Ave,Rockville,MD,21840
akeem.rowe@example.com,3,112 Center Ave,Rockville,MD,21840
leonard.bartell@example.com,3,113 Center Ave,Rockville,MD,21840
jerald.rolfson@example.com,2,114 Center Ave,Rockville,MD,21840
maia.raynor@example.com,1,115 Center Ave,Rockville,MD,21840
rosella.kassulke@example.com,2,116 Center Ave,Rockville,MD,21840
carmelo.schoen@example.com,3,117 Center Ave,Rockville,MD,21840
hilton.sipes@example.com,4,118 Center Ave,Rockville,MD,21840
kade.franecki@example.com,3,119 Center Ave,Rockville,MD,21840
dudley.homenick@example.com,4,120 Center Ave,Rockville,MD,21840
odell.brakus@example.com,5,121 Center Ave,Rockville,MD,21840
aniyah.dooley@example.com,3,122 Center Ave,Rockville,MD,21840
ken.schneider@example.com,4,123 Center Ave,Rockville,MD,21840
dejuan.watsica@example.com,3,124 Center Ave,Rockville,MD,21840
guillermo.feeney@example.com,2,125 Center Ave,Rockville,MD,21840
ayla.casper@example.com,1,126 Center Ave,Rockville,MD,21840
camille.cartwright@example.com,2,127 Center Ave,Rockville,MD,21840
ida.anderson@example.com,1,128 Center Ave,Rockville,MD,21840
pansy.schinner@example.com,5,129 Center Ave,Rockville,MD,21840
ambrose.swaniawski@example.com,4,130 Center Ave,Rockville,MD,21840
jarrell.white@example.com,6,131 Center Ave,Rockville,MD,21840
veronica.gutkowski@example.com,6,132 Center Ave,Rockville,MD,21840
connie.batz@example.com,6,133 Center Ave,Rockville,MD,21840
maynard.lueilwitz@example.com,4,134 Center Ave,Rockville,MD,21840
anabelle.bosco@example.com,3,135 Center Ave,Rockville,MD,21840
werner.ankunding@example.com,2,136 Center Ave,Rockville,MD,21840
mason.gaylord@example.com,3,137 Center Ave,Rockville,MD,21840
nicolas.fahey@example.com,3,138 Center Ave,Rockville,MD,21840
lois.kertzmann@example.com,4,139 Center Ave,Rockville,MD,21840
nikko.deckow@example.com,3,140 Center Ave,Rockville,MD,21840
dennis.kovacek@example.com,3,141 Center Ave,Rockville,MD,21840
brianne.wunsch@example.com,2,142 Center Ave,Rockville,MD,21840
carlee.larkin@example.com,1,143 Center Ave,Rockville,MD,21840
camille.stiedemann@example.com,1,144 Center Ave,Rockville,MD,21840
sage.kunde@example.com,1,145 Center Ave,Rockville,MD,21840
malcolm.jacobs@example.com,1,146 Center Ave,Rockville,MD,21840
thea.littel@example.com,2,147 Center Ave,Rockville,MD,21840
ruben.hoeger@example.com,3,148 Center Ave,Rockville,MD,21840
minerva.klocko@example.com,4,149 Center Ave,Rockville,MD,21840